{"type": "FeatureCollection", "features": [ {"type": "Feature", "properties": {"norad_id": 42987, "name": "SKYSAT-C11", "group": "resource", "lat": -4.40263678007004, "lon": -47.15881898851239, "alt_km": 426.79700783965745, "timestamp": "2025-12-21T16:47:54.386431+00:00", "meta": {"OBJECT_NAME": "SKYSAT-C11", "OBJECT_ID": "2017-068A", "EPOCH": "2025-12-21T08:14:47.895360", "MEAN_MOTION": 15.47785613, "ECCENTRICITY": 0.0001167, "INCLINATION": 97.4149, "RA_OF_ASC_NODE": 133.0504, "ARG_OF_PERICENTER": 99.4516, "MEAN_ANOMALY": 260.6866, "EPHEMERIS_TYPE": 0, "CLASSIFICATION_TYPE": "U", "NORAD_CAT_ID": 42987, "ELEMENT_SET_NO": 999, "REV_AT_EPOCH": 45564, "BSTAR": 0.00034865, "MEAN_MOTION_DOT": 0.00018009, "MEAN_MOTION_DDOT": 0}, "tle": {"line1": "1 42987U 17068A   25355.34360990  .00018009  00000+0  34865-3 0  9992", "line2": "2 42987  97.4149 133.0504 0001167  99.4516 260.6866 15.47785613455646"}}, "geometry": {"type": "Point", "coordinates": [-47.15881898851239, -4.40263678007004]}}, {"type": "Feature", "properties": {"norad_id": 42988, "name": "SKYSAT-C10", "group": "resource", "lat": 52.898770315238, "lon": -43.49182110621617, "alt_km": 461.751236132277, "timestamp": "2025-12-21T16:47:54.386442+00:00", "meta": {"OBJECT_NAME": "SKYSAT-C10", "OBJECT_ID": "2017-068B", "EPOCH": "2025-12-21T08:24:44.736192", "MEAN_MOTION": 15.32231189, "ECCENTRICITY": 0.0005385, "INCLINATION": 97.4268, "RA_OF_ASC_NODE": 126.2262, "ARG_OF_PERICENTER": 79.9672, "MEAN_ANOMALY": 280.2178, "EPHEMERIS_TYPE": 0, "CLASSIFICATION_TYPE": "U", "NORAD_CAT_ID": 42988, "ELEMENT_SET_NO": 999, "REV_AT_EPOCH": 45511, "BSTAR": 0.00027627, "MEAN_MOTION_DOT": 8.523e-05, "MEAN_MOTION_DDOT": 0}, "tle": {"line1": "1 42988U 17068B   25355.35051778  .00008523  00000+0  27627-3 0  9993", "line2": "2 42988  97.4268 126.2262 0005385  79.9672 280.2178 15.32231189455110"}}, "geometry": {"type": "Point", "coordinates": [-43.49182110621617, 52.898770315238]}}, {"type": "Feature", "properties": {"norad_id": 42989, "name": "SKYSAT-C9", "group": "resource", "lat": 75.05454307723463, "lon": -24.752659561271226, "alt_km": 444.9292174419761, "timestamp": "2025-12-21T16:47:54.386452+00:00", "meta": {"OBJECT_NAME": "SKYSAT-C9", "OBJECT_ID": "2017-068C", "EPOCH": "2025-12-21T06:58:23.082816", "MEAN_MOTION": 15.36250039, "ECCENTRICITY": 0.0010425, "INCLINATION": 97.4193, "RA_OF_ASC_NODE": 125.613, "ARG_OF_PERICENTER": 60.5238, "MEAN_ANOMALY": 299.7044, "EPHEMERIS_TYPE": 0, "CLASSIFICATION_TYPE": "U", "NORAD_CAT_ID": 42989, "ELEMENT_SET_NO": 999, "REV_AT_EPOCH": 45539, "BSTAR": 0.0002912, "MEAN_MOTION_DOT": 0.00010227, "MEAN_MOTION_DDOT": 0}, "tle": {"line1": "1 42989U 17068C   25355.29054494  .00010227  00000+0  29120-3 0  9999", "line2": "2 42989  97.4193 125.6130 0010425  60.5238 299.7044 15.36250039455396"}}, "geometry": {"type": "Point", "coordinates": [-24.752659561271226, 75.05454307723463]}}, {"type": "Feature", "properties": {"norad_id": 42990, "name": "SKYSAT-C8", "group": "resource", "lat": -27.403781038294316, "lon": 129.61893536900752, "alt_km": 471.88671011848055, "timestamp": "2025-12-21T16:47:54.386462+00:00", "meta": {"OBJECT_NAME": "SKYSAT-C8", "OBJECT_ID": "2017-068D", "EPOCH": "2025-12-21T09:05:11.258592", "MEAN_MOTION": 15.33095871, "ECCENTRICITY": 0.0001053, "INCLINATION": 97.4293, "RA_OF_ASC_NODE": 125.4171, "ARG_OF_PERICENTER": 293.1186, "MEAN_ANOMALY": 66.9945, "EPHEMERIS_TYPE": 0, "CLASSIFICATION_TYPE": "U", "NORAD_CAT_ID": 42990, "ELEMENT_SET_NO": 999, "REV_AT_EPOCH": 45503, "BSTAR": 0.00029071, "MEAN_MOTION_DOT": 9.217e-05, "MEAN_MOTION_DDOT": 0}, "tle": {"line1": "1 42990U 17068D   25355.37860253  .00009217  00000+0  29071-3 0  9990", "line2": "2 42990  97.4293 125.4171 0001053 293.1186  66.9945 15.33095871455038"}}, "geometry": {"type": "Point", "coordinates": [129.61893536900752, -27.403781038294316]}}, {"type": "Feature", "properties": {"norad_id": 42991, "name": "SKYSAT-C7", "group": "resource", "lat": 11.120281374941639, "lon": -51.75610415930685, "alt_km": 473.6178766034618, "timestamp": "2025-12-21T16:47:54.386472+00:00", "meta": {"OBJECT_NAME": "SKYSAT-C7", "OBJECT_ID": "2017-068E", "EPOCH": "2025-12-21T08:13:47.178624", "MEAN_MOTION": 15.32493909, "ECCENTRICITY": 0.0007114, "INCLINATION": 97.4298, "RA_OF_ASC_NODE": 126.4157, "ARG_OF_PERICENTER": 30.1875, "MEAN_ANOMALY": 329.9775, "EPHEMERIS_TYPE": 0, "CLASSIFICATION_TYPE": "U", "NORAD_CAT_ID": 42991, "ELEMENT_SET_NO": 999, "REV_AT_EPOCH": 45509, "BSTAR": 0.00027307, "MEAN_MOTION_DOT": 8.496e-05, "MEAN_MOTION_DDOT": 0}, "tle": {"line1": "1 42991U 17068E   25355.34290716  .00008496  00000+0  27307-3 0  9997", "line2": "2 42991  97.4298 126.4157 0007114  30.1875 329.9775 15.32493909455099"}}, "geometry": {"type": "Point", "coordinates": [-51.75610415930685, 11.120281374941639]}}, {"type": "Feature", "properties": {"norad_id": 42992, "name": "SKYSAT-C6", "group": "resource", "lat": -76.32299984931639, "lon": -85.23840922597961, "alt_km": 481.40010668937157, "timestamp": "2025-12-21T16:47:54.386484+00:00", "meta": {"OBJECT_NAME": "SKYSAT-C6", "OBJECT_ID": "2017-068F", "EPOCH": "2025-12-21T07:50:01.245120", "MEAN_MOTION": 15.31651111, "ECCENTRICITY": 0.0004953, "INCLINATION": 97.4327, "RA_OF_ASC_NODE": 126.8308, "ARG_OF_PERICENTER": 59.6747, "MEAN_ANOMALY": 300.4984, "EPHEMERIS_TYPE": 0, "CLASSIFICATION_TYPE": "U", "NORAD_CAT_ID": 42992, "ELEMENT_SET_NO": 999, "REV_AT_EPOCH": 45507, "BSTAR": 0.00028172, "MEAN_MOTION_DOT": 8.536e-05, "MEAN_MOTION_DDOT": 0}, "tle": {"line1": "1 42992U 17068F   25355.32640330  .00008536  00000+0  28172-3 0  9993", "line2": "2 42992  97.4327 126.8308 0004953  59.6747 300.4984 15.31651111455071"}}, "geometry": {"type": "Point", "coordinates": [-85.23840922597961, -76.32299984931639]}}, {"type": "Feature", "properties": {"norad_id": 43111, "name": "CARTOSAT-2F", "group": "resource", "lat": -31.582698469973106, "lon": 57.7956994658857, "alt_km": 515.1446855432032, "timestamp": "2025-12-21T16:47:54.386494+00:00", "meta": {"OBJECT_NAME": "CARTOSAT-2F", "OBJECT_ID": "2018-004A", "EPOCH": "2025-12-21T12:11:46.224096", "MEAN_MOTION": 15.19205218, "ECCENTRICITY": 0.0001411, "INCLINATION": 97.4309, "RA_OF_ASC_NODE": 53.0047, "ARG_OF_PERICENTER": 112.163, "MEAN_ANOMALY": 247.9755, "EPHEMERIS_TYPE": 0, "CLASSIFICATION_TYPE": "U", "NORAD_CAT_ID": 43111, "ELEMENT_SET_NO": 999, "REV_AT_EPOCH": 44035, "BSTAR": 0.00032259, "MEAN_MOTION_DOT": 6.724e-05, "MEAN_MOTION_DDOT": 0}, "tle": {"line1": "1 43111U 18004A   25355.50817389  .00006724  00000+0  32259-3 0  9996", "line2": "2 43111  97.4309  53.0047 0001411 112.1630 247.9755 15.19205218440353"}}, "geometry": {"type": "Point", "coordinates": [57.7956994658857, -31.582698469973106]}}, {"type": "Feature", "properties": {"norad_id": 43259, "name": "GAOFEN-1 02", "group": "resource", "lat": 24.3407903244328, "lon": -122.82263178737693, "alt_km": 638.525087924294, "timestamp": "2025-12-21T16:47:54.386505+00:00", "meta": {"OBJECT_NAME": "GAOFEN-1 02", "OBJECT_ID": "2018-031A", "EPOCH": "2025-12-21T12:50:39.306624", "MEAN_MOTION": 14.76433571, "ECCENTRICITY": 0.0002347, "INCLINATION": 98.0799, "RA_OF_ASC_NODE": 53.328, "ARG_OF_PERICENTER": 182.4078, "MEAN_ANOMALY": 177.7121, "EPHEMERIS_TYPE": 0, "CLASSIFICATION_TYPE": "U", "NORAD_CAT_ID": 43259, "ELEMENT_SET_NO": 999, "REV_AT_EPOCH": 41648, "BSTAR": 0.00019015, "MEAN_MOTION_DOT": 1.271e-05, "MEAN_MOTION_DDOT": 0}, "tle": {"line1": "1 43259U 18031A   25355.53517716  .00001271  00000+0  19015-3 0  9990", "line2": "2 43259  98.0799  53.3280 0002347 182.4078 177.7121 14.76433571416484"}}, "geometry": {"type": "Point", "coordinates": [-122.82263178737693, 24.3407903244328]}}, {"type": "Feature", "properties": {"norad_id": 43260, "name": "GAOFEN-1 03", "group": "resource", "lat": -81.83282286159006, "lon": 135.1265550643708, "alt_km": 646.7006369781147, "timestamp": "2025-12-21T16:47:54.386515+00:00", "meta": {"OBJECT_NAME": "GAOFEN-1 03", "OBJECT_ID": "2018-031B", "EPOCH": "2025-12-21T12:19:14.648736", "MEAN_MOTION": 14.76453483, "ECCENTRICITY": 0.00017, "INCLINATION": 98.0786, "RA_OF_ASC_NODE": 53.1816, "ARG_OF_PERICENTER": 275.7253, "MEAN_ANOMALY": 84.3762, "EPHEMERIS_TYPE": 0, "CLASSIFICATION_TYPE": "U", "NORAD_CAT_ID": 43260, "ELEMENT_SET_NO": 999, "REV_AT_EPOCH": 41647, "BSTAR": 0.0001138, "MEAN_MOTION_DOT": 7.4e-06, "MEAN_MOTION_DDOT": 0}, "tle": {"line1": "1 43260U 18031B   25355.51336399  .00000740  00000+0  11380-3 0  9993", "line2": "2 43260  98.0786  53.1816 0001700 275.7253  84.3762 14.76453483416475"}}, "geometry": {"type": "Point", "coordinates": [135.1265550643708, -81.83282286159006]}}, {"type": "Feature", "properties": {"norad_id": 43262, "name": "GAOFEN-1 04", "group": "resource", "lat": 39.979224519568646, "lon": 46.69806479782898, "alt_km": 637.0722856393268, "timestamp": "2025-12-21T16:47:54.386525+00:00", "meta": {"OBJECT_NAME": "GAOFEN-1 04", "OBJECT_ID": "2018-031D", "EPOCH": "2025-12-21T11:44:10.336992", "MEAN_MOTION": 14.76423502, "ECCENTRICITY": 6.92e-05, "INCLINATION": 98.0801, "RA_OF_ASC_NODE": 53.3282, "ARG_OF_PERICENTER": 53.7908, "MEAN_ANOMALY": 306.3365, "EPHEMERIS_TYPE": 0, "CLASSIFICATION_TYPE": "U", "NORAD_CAT_ID": 43262, "ELEMENT_SET_NO": 999, "REV_AT_EPOCH": 41646, "BSTAR": 0.00013044, "MEAN_MOTION_DOT": 8.55e-06, "MEAN_MOTION_DDOT": 0}, "tle": {"line1": "1 43262U 18031D   25355.48900853  .00000855  00000+0  13044-3 0  9999", "line2": "2 43262  98.0801  53.3282 0000692  53.7908 306.3365 14.76423502416468"}}, "geometry": {"type": "Point", "coordinates": [46.69806479782898, 39.979224519568646]}}]}